TimeCDT,TemperatureF,Dew PointF,Humidity,Sea Level PressureIn,VisibilityMPH,Wind Direction,Wind SpeedMPH,Gust SpeedMPH,PrecipitationIn,Events,Conditions,WindDirDegrees,DateUTC
12:17 AM,73.9,68.0,82,30.06,10.0,East,9.2,-,0.00,Rain,Light Rain,90,2014-05-26 05:17:00
12:51 AM,73.9,68.0,82,30.02,10.0,NNE,4.6,-,0.00,,Overcast,30,2014-05-26 05:51:00
1:45 AM,71.6,68.0,88,30.08,8.0,East,10.4,-,N/A,Rain-Thunderstorm,Light Thunderstorms and Rain,90,2014-05-26 06:45:00
1:51 AM,72.0,69.1,91,30.02,8.0,East,11.5,-,N/A,Rain-Thunderstorm,Light Thunderstorms and Rain,100,2014-05-26 06:51:00
2:51 AM,71.1,68.0,90,29.99,3.0,ENE,5.8,-,0.15,Rain-Thunderstorm,Thunderstorms and Rain,70,2014-05-26 07:51:00
3:51 AM,68.0,66.0,93,29.98,6.0,ESE,8.1,-,0.18,Rain-Thunderstorm,Light Thunderstorms and Rain,120,2014-05-26 08:51:00
4:43 AM,68.0,62.1,81,29.94,8.0,SE,11.5,24.2,0.01,Thunderstorm,Thunderstorm,140,2014-05-26 09:43:00
4:51 AM,68.0,62.1,81,29.89,8.0,ESE,5.8,-,0.01,Thunderstorm,Thunderstorm,120,2014-05-26 09:51:00
5:16 AM,66.9,63.0,87,29.97,10.0,SSE,8.1,-,0.00,,Mostly Cloudy,150,2014-05-26 10:16:00
5:51 AM,66.9,63.0,87,29.94,10.0,SE,6.9,-,0.00,,Mostly Cloudy,130,2014-05-26 10:51:00
6:51 AM,66.9,64.0,90,29.94,10.0,ESE,4.6,-,N/A,,Mostly Cloudy,110,2014-05-26 11:51:00
7:51 AM,68.0,64.9,90,29.96,6.0,NE,4.6,-,0.02,Rain,Light Rain,50,2014-05-26 12:51:00
8:31 AM,68.0,66.0,93,29.99,8.0,ENE,5.8,-,0.00,Rain-Thunderstorm,Light Thunderstorms and Rain,70,2014-05-26 13:31:00
8:48 AM,68.0,66.2,94,30.00,8.0,NE,3.5,-,0.02,Rain-Thunderstorm,Light Thunderstorms and Rain,50,2014-05-26 13:48:00
8:51 AM,68.0,66.0,93,29.95,8.0,ENE,3.5,-,0.03,Rain-Thunderstorm,Light Thunderstorms and Rain,60,2014-05-26 13:51:00
9:38 AM,70.0,68.0,93,30.01,8.0,East,8.1,-,0.02,Rain-Thunderstorm,Light Thunderstorms and Rain,100,2014-05-26 14:38:00
9:48 AM,69.8,68.0,94,30.01,8.0,ESE,8.1,-,0.02,,Overcast,110,2014-05-26 14:48:00
9:51 AM,70.0,68.0,93,29.97,8.0,ESE,6.9,-,0.02,Rain,Light Rain,110,2014-05-26 14:51:00
10:12 AM,71.1,69.1,93,30.01,8.0,Calm,Calm,-,0.00,Rain,Light Rain,0,2014-05-26 15:12:00
10:37 AM,66.9,63.0,87,30.04,8.0,NW,18.4,39.1,0.01,Rain,Light Rain,320,2014-05-26 15:37:00
10:51 AM,66.9,62.1,84,30.05,1.0,WSW,8.1,19.6,0.01,Rain-Thunderstorm,Light Thunderstorms and Rain,250,2014-05-26 15:51:00
10:54 AM,66.0,63.0,90,30.08,0.2,SSW,8.1,-,0.10,Fog-Rain-Thunderstorm,Heavy Thunderstorms and Rain,200,2014-05-26 15:54:00
11:06 AM,64.9,63.0,93,30.03,1.0,North,17.3,24.2,0.60,Rain-Thunderstorm,Heavy Thunderstorms and Rain,10,2014-05-26 16:06:00
11:15 AM,64.9,63.0,93,30.05,2.0,NNE,9.2,24.2,0.68,Rain-Thunderstorm,Thunderstorms and Rain,20,2014-05-26 16:15:00
11:28 AM,64.9,63.0,93,30.07,3.0,West,9.2,-,0.74,Rain-Thunderstorm,Thunderstorms and Rain,270,2014-05-26 16:28:00
11:32 AM,64.9,63.0,93,30.03,0.5,NNW,5.8,-,0.75,Fog-Rain-Thunderstorm,Heavy Thunderstorms and Rain,340,2014-05-26 16:32:00
11:44 AM,64.9,63.0,93,30.05,5.0,ENE,3.5,-,0.98,Rain-Thunderstorm,Light Thunderstorms and Rain,60,2014-05-26 16:44:00
11:51 AM,64.9,63.0,93,30.01,5.0,East,10.4,-,0.99,Rain-Thunderstorm,Light Thunderstorms and Rain,100,2014-05-26 16:51:00
12:42 PM,64.9,64.0,97,30.07,2.0,East,10.4,-,0.11,Rain-Thunderstorm,Heavy Thunderstorms and Rain,100,2014-05-26 17:42:00
12:51 PM,64.9,64.0,97,30.00,2.0,ENE,9.2,-,0.18,Rain-Thunderstorm,Heavy Thunderstorms and Rain,70,2014-05-26 17:51:00
1:14 PM,64.9,64.0,97,30.01,7.0,WNW,8.1,27.6,0.11,Rain-Thunderstorm,Light Thunderstorms and Rain,290,2014-05-26 18:14:00
1:23 PM,66.0,64.0,93,30.00,10.0,Variable,6.9,-,0.12,Rain,Light Rain,0,2014-05-26 18:23:00
1:44 PM,66.9,64.0,90,30.02,10.0,East,13.8,-,0.12,,Overcast,100,2014-05-26 18:44:00
1:51 PM,66.2,64.4,94,30.01,10.0,East,13.8,-,N/A,,Overcast,100,2014-05-26 18:51:00
2:51 PM,68.0,64.9,90,29.98,10.0,East,15.0,-,N/A,,Overcast,90,2014-05-26 19:51:00
3:25 PM,68.0,64.0,87,30.01,10.0,East,13.8,-,N/A,,Overcast,90,2014-05-26 20:25:00
3:51 PM,70.0,64.9,84,29.96,10.0,East,10.4,-,N/A,,Overcast,90,2014-05-26 20:51:00
4:33 PM,72.0,64.9,78,29.99,10.0,East,8.1,-,N/A,,Mostly Cloudy,80,2014-05-26 21:33:00
4:51 PM,72.0,64.9,78,29.95,10.0,ENE,8.1,-,N/A,,Overcast,70,2014-05-26 21:51:00
5:51 PM,72.0,66.0,81,29.94,10.0,ESE,13.8,-,0.00,,Overcast,120,2014-05-26 22:51:00
6:21 PM,71.1,64.9,81,29.99,10.0,ESE,12.7,-,N/A,,Overcast,120,2014-05-26 23:21:00
6:36 PM,71.1,64.9,81,29.98,10.0,ESE,9.2,-,N/A,,Overcast,110,2014-05-26 23:36:00
6:51 PM,70.0,64.9,84,29.95,10.0,East,10.4,-,N/A,,Overcast,100,2014-05-26 23:51:00
7:21 PM,70.0,64.9,84,29.98,10.0,East,9.2,-,N/A,,Overcast,100,2014-05-27 00:21:00
7:51 PM,69.1,64.9,87,29.95,10.0,East,3.5,-,N/A,,Mostly Cloudy,100,2014-05-27 00:51:00
8:51 PM,68.0,64.9,90,29.92,10.0,SE,9.2,-,N/A,,Mostly Cloudy,130,2014-05-27 01:51:00
9:51 PM,66.9,64.0,90,29.94,10.0,ESE,4.6,-,N/A,,Mostly Cloudy,120,2014-05-27 02:51:00
10:51 PM,68.0,64.9,90,29.98,10.0,ENE,3.5,-,N/A,,Overcast,70,2014-05-27 03:51:00
11:47 PM,68.0,64.4,88,30.01,10.0,East,3.5,-,N/A,,Overcast,90,2014-05-27 04:47:00
11:51 PM,68.0,64.9,90,29.97,10.0,East,3.5,-,N/A,,Overcast,80,2014-05-27 04:51:00
