TimeCDT,TemperatureF,Dew PointF,Humidity,Sea Level PressureIn,VisibilityMPH,Wind Direction,Wind SpeedMPH,Gust SpeedMPH,PrecipitationIn,Events,Conditions,WindDirDegrees,DateUTC
12:51 AM,71.1,66.9,87,29.89,9.0,East,8.1,-,N/A,,Overcast,90,2015-04-17 05:51:00
1:51 AM,70.0,66.9,90,29.89,6.0,East,8.1,-,N/A,,Overcast,80,2015-04-17 06:51:00
1:58 AM,70.0,66.9,90,29.93,4.0,East,10.4,-,0.00,,Light Drizzle,90,2015-04-17 06:58:00
2:05 AM,70.0,66.9,90,29.93,2.0,East,10.4,-,0.00,,Light Drizzle,90,2015-04-17 07:05:00
2:51 AM,69.1,66.9,93,29.88,0.5,East,5.8,-,0.00,Fog,Light Drizzle,80,2015-04-17 07:51:00
3:51 AM,69.1,66.9,93,29.87,0.5,East,9.2,-,0.00,,Light Drizzle,100,2015-04-17 08:51:00
3:55 AM,69.1,66.9,93,29.91,0.5,East,10.4,-,0.00,Fog,Light Drizzle,90,2015-04-17 08:55:00
3:57 AM,69.8,66.2,88,29.91,0.1,East,9.2,-,N/A,Fog,Light Drizzle,90,2015-04-17 08:57:00
4:51 AM,69.1,66.9,93,29.88,0.1,East,11.5,-,0.00,Fog,Light Drizzle,80,2015-04-17 09:51:00
5:51 AM,68.0,66.9,96,29.87,0.1,East,10.4,-,0.00,Fog,Light Drizzle,100,2015-04-17 10:51:00
6:07 AM,68.0,66.0,93,29.91,0.1,East,12.7,-,0.00,,Light Drizzle,100,2015-04-17 11:07:00
6:51 AM,68.0,66.0,93,29.88,0.1,East,13.8,-,0.00,,Light Drizzle,100,2015-04-17 11:51:00
7:51 AM,68.0,64.9,90,29.90,0.1,ESE,15.0,21.9,0.00,Fog-Rain,Light Rain,110,2015-04-17 12:51:00
8:02 AM,68.0,64.9,90,29.94,4.0,ESE,13.8,-,0.00,,Light Drizzle,110,2015-04-17 13:02:00
8:51 AM,69.1,64.9,87,29.90,4.0,ESE,13.8,19.6,0.00,,Light Drizzle,120,2015-04-17 13:51:00
9:51 AM,69.1,64.9,87,29.90,10.0,ESE,10.4,-,0.00,,Overcast,110,2015-04-17 14:51:00
10:51 AM,72.0,66.9,84,29.89,10.0,ESE,9.2,-,N/A,,Overcast,120,2015-04-17 15:51:00
11:04 AM,72.0,66.9,84,29.93,10.0,ESE,9.2,-,N/A,,Overcast,120,2015-04-17 16:04:00
11:51 AM,73.0,68.0,84,29.90,10.0,SE,10.4,-,N/A,,Overcast,130,2015-04-17 16:51:00
12:15 PM,73.0,68.0,84,29.93,10.0,East,5.8,-,N/A,,Overcast,100,2015-04-17 17:15:00
12:44 PM,73.0,69.1,87,29.92,2.5,ESE,5.8,-,0.00,Rain,Light Rain,120,2015-04-17 17:44:00
12:51 PM,73.0,69.1,87,29.87,2.5,East,8.1,-,0.00,Rain,Light Rain,100,2015-04-17 17:51:00
1:02 PM,73.0,69.1,87,29.92,4.0,East,4.6,-,0.00,Rain,Light Rain,90,2015-04-17 18:02:00
1:51 PM,73.0,69.1,87,29.85,8.0,East,8.1,-,0.00,,Overcast,90,2015-04-17 18:51:00
2:16 PM,73.0,69.1,87,29.88,2.0,East,11.5,-,0.00,Rain,Light Rain,90,2015-04-17 19:16:00
2:19 PM,73.0,69.1,87,29.87,1.0,East,11.5,-,0.00,Rain,Light Rain,90,2015-04-17 19:19:00
2:51 PM,73.0,70.0,90,29.84,1.0,East,8.1,-,0.01,Rain,Light Rain,100,2015-04-17 19:51:00
3:09 PM,73.0,70.0,90,29.88,2.0,East,8.1,-,0.01,Rain,Light Rain,100,2015-04-17 20:09:00
3:30 PM,73.0,70.0,90,29.87,2.5,East,8.1,-,0.05,Rain-Thunderstorm,Thunderstorms and Rain,90,2015-04-17 20:30:00
3:51 PM,73.0,70.0,90,29.81,2.5,East,17.3,-,0.10,Rain-Thunderstorm,Thunderstorms and Rain,100,2015-04-17 20:51:00
4:22 PM,72.0,69.1,91,29.77,4.0,East,18.4,26.5,0.03,Rain-Thunderstorm,Thunderstorms and Rain,90,2015-04-17 21:22:00
4:51 PM,72.0,68.0,87,29.81,10.0,NNW,11.5,-,0.05,,Overcast,340,2015-04-17 21:51:00
4:58 PM,72.0,68.0,87,29.87,10.0,NW,11.5,-,N/A,,Overcast,320,2015-04-17 21:58:00
5:20 PM,71.1,66.9,87,29.86,10.0,NNW,12.7,-,N/A,,Overcast,330,2015-04-17 22:20:00
5:51 PM,70.0,64.9,84,29.83,10.0,North,6.9,-,N/A,,Overcast,360,2015-04-17 22:51:00
6:51 PM,68.0,63.0,84,29.83,10.0,North,12.7,21.9,0.00,,Overcast,350,2015-04-17 23:51:00
7:51 PM,68.0,63.0,84,29.84,10.0,ENE,6.9,-,0.00,,Overcast,60,2015-04-18 00:51:00
7:59 PM,68.0,64.0,87,29.89,10.0,NNE,5.8,-,N/A,Thunderstorm,Thunderstorm,20,2015-04-18 00:59:00
8:07 PM,68.0,64.0,87,29.90,10.0,North,4.6,-,N/A,Thunderstorm,Thunderstorm,350,2015-04-18 01:07:00
8:51 PM,66.9,64.0,90,29.81,10.0,East,13.8,-,0.03,Rain,Light Rain,80,2015-04-18 01:51:00
9:51 PM,66.9,63.0,87,29.83,10.0,NE,4.6,-,0.00,,Mostly Cloudy,50,2015-04-18 02:51:00
10:27 PM,66.9,64.0,90,29.89,10.0,NE,4.6,-,N/A,,Overcast,40,2015-04-18 03:27:00
10:51 PM,66.9,64.0,90,29.85,10.0,ENE,4.6,-,N/A,,Overcast,60,2015-04-18 03:51:00
11:13 PM,66.9,64.0,90,29.91,10.0,NE,3.5,-,N/A,,Mostly Cloudy,40,2015-04-18 04:13:00
11:34 PM,66.9,64.0,90,29.90,10.0,Calm,Calm,-,N/A,,Mostly Cloudy,0,2015-04-18 04:34:00
11:51 PM,66.9,64.0,90,29.84,10.0,ENE,4.6,-,N/A,,Mostly Cloudy,70,2015-04-18 04:51:00
